[
    {
        "Altitude(m)": 617719.7262558467,
        "Argument of Periapsis(deg)": 0.0,
        "Eccentricity": 0.0,
        "Inclination(deg)": 60.0,
        "Latitude(deg)": -41.1025191283858,
        "Longitude(deg)": 135.09457497729514,
        "Mean Anomaly(deg)": 229.09090000000003,
        "RAAN(deg)": 25.0,
        "Satellite Name": "Test1 124",
        "Satellite Number": 124,
        "Semi-Major Axis(m)": 6980739.136638005,
        "Time(s)": 0
    },
    {
        "Altitude(m)": 617911.2623393548,
        "Argument of Periapsis(deg)": 0.00010418945913296404,
        "Eccentricity": 0.0,
        "Inclination(deg)": 60.0,
        "Latitude(deg)": -41.56571185266106,
        "Longitude(deg)": 135.59897940657828,
        "Mean Anomaly(deg)": 229.71100614546188,
        "RAAN(deg)": 24.99957995086026,
        "Satellite Name": "Test1 124",
        "Satellite Number": 124,
        "Semi-Major Axis(m)": 6980739.136638005,
        "Time(s)": 10
    },
    {
        "Altitude(m)": 618101.673217222,
        "Argument of Periapsis(deg)": 0.0002083789182659281,
        "Eccentricity": 0.0,
        "Inclination(deg)": 60.0,
        "Latitude(deg)": -42.02622609334363,
        "Longitude(deg)": 136.11119117018168,
        "Mean Anomaly(deg)": 230.3311122909237,
        "RAAN(deg)": 24.999159901720514,
        "Satellite Name": "Test1 124",
        "Satellite Number": 124,
        "Semi-Major Axis(m)": 6980739.136638005,
        "Time(s)": 20
    },
    {
        "Altitude(m)": 618290.8858620332,
        "Argument of Periapsis(deg)": 0.00031256837739889213,
        "Eccentricity": 0.0,
        "Inclination(deg)": 60.0,
        "Latitude(deg)": -42.48398160432772,
        "Longitude(deg)": 136.63140495256314,
        "Mean Anomaly(deg)": 230.95121843638552,
        "RAAN(deg)": 24.998739852580773,
        "Satellite Name": "Test1 124",
        "Satellite Number": 124,
        "Semi-Major Axis(m)": 6980739.136638005,
        "Time(s)": 30
    },
    {
        "Altitude(m)": 618478.8276235897,
        "Argument of Periapsis(deg)": 0.0004167578365318562,
        "Eccentricity": 0.0,
        "Inclination(deg)": 60.0,
        "Latitude(deg)": -42.9388956144731,
        "Longitude(deg)": 137.15981923186905,
        "Mean Anomaly(deg)": 231.57132458184736,
        "RAAN(deg)": 24.998319803441028,
        "Satellite Name": "Test1 124",
        "Satellite Number": 124,
        "Semi-Major Axis(m)": 6980739.136638005,
        "Time(s)": 40
    },
    {
        "Altitude(m)": 618665.4262605385,
        "Argument of Periapsis(deg)": 0.0005209472956648203,
        "Eccentricity": 0.0,
        "Inclination(deg)": 60.0,
        "Latitude(deg)": -43.39088274949183,
        "Longitude(deg)": 137.69663518202367,
        "Mean Anomaly(deg)": 232.19143072730915,
        "RAAN(deg)": 24.997899754301287,
        "Satellite Name": "Test1 124",
        "Satellite Number": 124,
        "Semi-Major Axis(m)": 6980739.136638005,
        "Time(s)": 50
    },
    {
        "Altitude(m)": 618850.609971847,
        "Argument of Periapsis(deg)": 0.0006251367547977843,
        "Eccentricity": 0.0,
        "Inclination(deg)": 60.0,
        "Latitude(deg)": -43.83985495319509,
        "Longitude(deg)": 138.24205706793958,
        "Mean Anomaly(deg)": 232.811536872771,
        "RAAN(deg)": 24.997479705161545,
        "Satellite Name": "Test1 124",
        "Satellite Number": 124,
        "Semi-Major Axis(m)": 6980739.136638005,
        "Time(s)": 60
    },
    {
        "Altitude(m)": 619034.3074280234,
        "Argument of Periapsis(deg)": 0.0007293262139307483,
        "Eccentricity": 0.0,
        "Inclination(deg)": 60.0,
        "Latitude(deg)": -44.28572140833144,
        "Longitude(deg)": 138.79629261911074,
        "Mean Anomaly(deg)": 233.43164301823282,
        "RAAN(deg)": 24.997059656021804,
        "Satellite Name": "Test1 124",
        "Satellite Number": 124,
        "Semi-Major Axis(m)": 6980739.136638005,
        "Time(s)": 70
    },
    {
        "Altitude(m)": 619216.4478021243,
        "Argument of Periapsis(deg)": 0.0008335156730637124,
        "Eccentricity": 0.0,
        "Inclination(deg)": 60.0,
        "Latitude(deg)": -44.72838845728039,
        "Longitude(deg)": 139.35955186673115,
        "Mean Anomaly(deg)": 234.05174916369467,
        "RAAN(deg)": 24.99663960688206,
        "Satellite Name": "Test1 124",
        "Satellite Number": 124,
        "Semi-Major Axis(m)": 6980739.136638005,
        "Time(s)": 80
    },
    {
        "Altitude(m)": 619396.9608005318,
        "Argument of Periapsis(deg)": 0.0009377051321966765,
        "Eccentricity": 0.0,
        "Inclination(deg)": 60.0,
        "Latitude(deg)": -45.167759522906785,
        "Longitude(deg)": 139.93204746797485,
        "Mean Anomaly(deg)": 234.67185530915646,
        "RAAN(deg)": 24.996219557742318,
        "Satellite Name": "Test1 124",
        "Satellite Number": 124,
        "Semi-Major Axis(m)": 6980739.136638005,
        "Time(s)": 90
    },
    {
        "Altitude(m)": 619575.7766934468,
        "Argument of Periapsis(deg)": 0.0010418945913296407,
        "Eccentricity": 0.0,
        "Inclination(deg)": 60.0,
        "Latitude(deg)": -45.603735029918525,
        "Longitude(deg)": 140.51399500234422,
        "Mean Anomaly(deg)": 235.2919614546183,
        "RAAN(deg)": 24.995799508602577,
        "Satellite Name": "Test1 124",
        "Satellite Number": 124,
        "Semi-Major Axis(m)": 6980739.136638005,
        "Time(s)": 100
    },
    {
        "Altitude(m)": 619752.8263451193,
        "Argument of Periapsis(deg)": 0.0011460840504626045,
        "Eccentricity": 0.0,
        "Inclination(deg)": 60.0,
        "Latitude(deg)": -46.03621232710742,
        "Longitude(deg)": 141.10561172486763,
        "Mean Anomaly(deg)": 235.91206760008015,
        "RAAN(deg)": 24.99537945946283,
        "Satellite Name": "Test1 124",
        "Satellite Number": 124,
        "Semi-Major Axis(m)": 6980739.136638005,
        "Time(s)": 110
    },
    {
        "Altitude(m)": 619928.0412438256,
        "Argument of Periapsis(deg)": 0.0012502735095955685,
        "Eccentricity": 0.0,
        "Inclination(deg)": 60.0,
        "Latitude(deg)": -46.465085610911295,
        "Longitude(deg)": 141.70711679943633,
        "Mean Anomaly(deg)": 236.53217374554197,
        "RAAN(deg)": 24.994959410323087,
        "Satellite Name": "Test1 124",
        "Satellite Number": 124,
        "Semi-Major Axis(m)": 6980739.136638005,
        "Time(s)": 120
    },
    {
        "Altitude(m)": 620101.353531503,
        "Argument of Periapsis(deg)": 0.0013544629687285324,
        "Eccentricity": 0.0,
        "Inclination(deg)": 60.0,
        "Latitude(deg)": -46.89024585077587,
        "Longitude(deg)": 142.3187314968442,
        "Mean Anomaly(deg)": 237.15227989100384,
        "RAAN(deg)": 24.994539361183342,
        "Satellite Name": "Test1 124",
        "Satellite Number": 124,
        "Semi-Major Axis(m)": 6980739.136638005,
        "Time(s)": 130
    },
    {
        "Altitude(m)": 620272.6960331199,
        "Argument of Periapsis(deg)": 0.0014586524278614966,
        "Eccentricity": 0.0,
        "Inclination(deg)": 60.0,
        "Latitude(deg)": -47.311580716848965,
        "Longitude(deg)": 142.94067784199515,
        "Mean Anomaly(deg)": 237.77238603646566,
        "RAAN(deg)": 24.9941193120436,
        "Satellite Name": "Test1 124",
        "Satellite Number": 124,
        "Semi-Major Axis(m)": 6980739.136638005,
        "Time(s)": 140
    },
    {
        "Altitude(m)": 620442.002285697,
        "Argument of Periapsis(deg)": 0.0015628418869944607,
        "Eccentricity": 0.0,
        "Inclination(deg)": 60.0,
        "Latitude(deg)": -47.72897451060425,
        "Longitude(deg)": 143.57317873327239,
        "Mean Anomaly(deg)": 238.3924921819275,
        "RAAN(deg)": 24.99369926290386,
        "Satellite Name": "Test1 124",
        "Satellite Number": 124,
        "Semi-Major Axis(m)": 6980739.136638005,
        "Time(s)": 150
    },
    {
        "Altitude(m)": 620609.2065670252,
        "Argument of Periapsis(deg)": 0.0016670313461274247,
        "Eccentricity": 0.0,
        "Inclination(deg)": 60.0,
        "Latitude(deg)": -48.14230809904379,
        "Longitude(deg)": 144.21645801837377,
        "Mean Anomaly(deg)": 239.0125983273893,
        "RAAN(deg)": 24.99327921376412,
        "Satellite Name": "Test1 124",
        "Satellite Number": 124,
        "Semi-Major Axis(m)": 6980739.136638005,
        "Time(s)": 160
    },
    {
        "Altitude(m)": 620774.2439239963,
        "Argument of Periapsis(deg)": 0.0017712208052603888,
        "Eccentricity": 0.0,
        "Inclination(deg)": 60.0,
        "Latitude(deg)": -48.55145885319565,
        "Longitude(deg)": 144.87073901086995,
        "Mean Anomaly(deg)": 239.63270447285115,
        "RAAN(deg)": 24.992859164624374,
        "Satellite Name": "Test1 124",
        "Satellite Number": 124,
        "Semi-Major Axis(m)": 6980739.136638005,
        "Time(s)": 170
    },
    {
        "Altitude(m)": 620937.050200642,
        "Argument of Periapsis(deg)": 0.001875410264393353,
        "Eccentricity": 0.0,
        "Inclination(deg)": 60.0,
        "Latitude(deg)": -48.956300591693385,
        "Longitude(deg)": 145.53624447032138,
        "Mean Anomaly(deg)": 240.25281061831296,
        "RAAN(deg)": 24.992439115484633,
        "Satellite Name": "Test1 124",
        "Satellite Number": 124,
        "Semi-Major Axis(m)": 6980739.136638005,
        "Time(s)": 180
    },
    {
        "Altitude(m)": 621097.5620657377,
        "Argument of Periapsis(deg)": 0.0019795997235263173,
        "Eccentricity": 0.0,
        "Inclination(deg)": 60.0,
        "Latitude(deg)": -49.356703530290204,
        "Longitude(deg)": 146.21319653017963,
        "Mean Anomaly(deg)": 240.8729167637748,
        "RAAN(deg)": 24.99201906634489,
        "Satellite Name": "Test1 124",
        "Satellite Number": 124,
        "Semi-Major Axis(m)": 6980739.136638005,
        "Time(s)": 190
    }
]